{"fetched_at":"2026-07-15T06:35:30.786Z","source":"https://celestrak.org/NORAD/elements/gp.php?GROUP=kuiper&FORMAT=JSON","constellation":"kuiper","records":[{"OBJECT_NAME":"KUIPER-00114","OBJECT_ID":"2025-171V","EPOCH":"2026-07-14T16:22:19.824960","CLASSIFICATION_TYPE":"U","MEAN_MOTION":14.79937498,"ECCENTRICITY":0.00004991,"INCLINATION":51.9007,"RA_OF_ASC_NODE":334.0347,"ARG_OF_PERICENTER":112.9981,"MEAN_ANOMALY":247.1034,"EPHEMERIS_TYPE":0,"NORAD_CAT_ID":65151,"ELEMENT_SET_NO":999,"REV_AT_EPOCH":5144,"BSTAR":0.00025893003,"MEAN_MOTION_DOT":0.00001754,"MEAN_MOTION_DDOT":0},{"OBJECT_NAME":"KUIPER-00115","OBJECT_ID":"2025-171W","EPOCH":"2026-07-14T13:19:29.996256","CLASSIFICATION_TYPE":"U","MEAN_MOTION":14.79936177,"ECCENTRICITY":0.0000372,"INCLINATION":51.9021,"RA_OF_ASC_NODE":327.0984,"ARG_OF_PERICENTER":108.9058,"MEAN_ANOMALY":251.1944,"EPHEMERIS_TYPE":0,"NORAD_CAT_ID":65152,"ELEMENT_SET_NO":999,"REV_AT_EPOCH":5153,"BSTAR":0.0002363,"MEAN_MOTION_DOT":0.00001581,"MEAN_MOTION_DDOT":0},{"OBJECT_NAME":"KUIPER-00116","OBJECT_ID":"2025-171X","EPOCH":"2026-07-14T14:00:21.983328","CLASSIFICATION_TYPE":"U","MEAN_MOTION":14.79932722,"ECCENTRICITY":0.0000539,"INCLINATION":51.9019,"RA_OF_ASC_NODE":332.0068,"ARG_OF_PERICENTER":126.6385,"MEAN_ANOMALY":233.4627,"EPHEMERIS_TYPE":0,"NORAD_CAT_ID":65153,"ELEMENT_SET_NO":999,"REV_AT_EPOCH":5146,"BSTAR":0.000244,"MEAN_MOTION_DOT":0.00001639,"MEAN_MOTION_DDOT":0},{"OBJECT_NAME":"KUIPER-00118","OBJECT_ID":"2025-171Y","EPOCH":"2026-07-14T13:56:26.312640","CLASSIFICATION_TYPE":"U","MEAN_MOTION":14.79919402,"ECCENTRICITY":0.0000558,"INCLINATION":51.9016,"RA_OF_ASC_NODE":334.4702,"ARG_OF_PERICENTER":107.7573,"MEAN_ANOMALY":252.345,"EPHEMERIS_TYPE":0,"NORAD_CAT_ID":65154,"ELEMENT_SET_NO":999,"REV_AT_EPOCH":5143,"BSTAR":0.00020007,"MEAN_MOTION_DOT":0.00001304,"MEAN_MOTION_DDOT":0},{"OBJECT_NAME":"KUIPER-00119","OBJECT_ID":"2025-171Z","EPOCH":"2026-07-14T15:53:08.845152","CLASSIFICATION_TYPE":"U","MEAN_MOTION":14.79934276,"ECCENTRICITY":0.00000437,"INCLINATION":51.9036,"RA_OF_ASC_NODE":321.7076,"ARG_OF_PERICENTER":165.9246,"MEAN_ANOMALY":194.1717,"EPHEMERIS_TYPE":0,"NORAD_CAT_ID":65155,"ELEMENT_SET_NO":999,"REV_AT_EPOCH":5161,"BSTAR":0.000073310644,"MEAN_MOTION_DOT":0.00000338,"MEAN_MOTION_DDOT":0},{"OBJECT_NAME":"KUIPER-00120","OBJECT_ID":"2025-217A","EPOCH":"2026-07-14T08:36:13.998240","CLASSIFICATION_TYPE":"U","MEAN_MOTION":14.79932286,"ECCENTRICITY":0.00003867,"INCLINATION":51.8984,"RA_OF_ASC_NODE":212.9268,"ARG_OF_PERICENTER":72.3449,"MEAN_ANOMALY":287.7555,"EPHEMERIS_TYPE":0,"NORAD_CAT_ID":65762,"ELEMENT_SET_NO":999,"REV_AT_EPOCH":4349,"BSTAR":0.00014451995,"MEAN_MOTION_DOT":0.00000881,"MEAN_MOTION_DDOT":0},{"OBJECT_NAME":"KUIPER-00132","OBJECT_ID":"2025-217B","EPOCH":"2026-07-14T22:20:49.892064","CLASSIFICATION_TYPE":"U","MEAN_MOTION":15.43349101,"ECCENTRICITY":0.00078412,"INCLINATION":51.8561,"RA_OF_ASC_NODE":103.9834,"ARG_OF_PERICENTER":67.5234,"MEAN_ANOMALY":292.6585,"EPHEMERIS_TYPE":0,"NORAD_CAT_ID":65763,"ELEMENT_SET_NO":999,"REV_AT_EPOCH":4505,"BSTAR":0.00045714052,"MEAN_MOTION_DOT":0.00020378,"MEAN_MOTION_DDOT":0},{"OBJECT_NAME":"KUIPER-00133","OBJECT_ID":"2025-217C","EPOCH":"2026-07-14T07:47:37.879008","CLASSIFICATION_TYPE":"U","MEAN_MOTION":14.79932719,"ECCENTRICITY":0.00004433,"INCLINATION":51.9026,"RA_OF_ASC_NODE":213.1845,"ARG_OF_PERICENTER":80.0262,"MEAN_ANOMALY":280.0751,"EPHEMERIS_TYPE":0,"NORAD_CAT_ID":65764,"ELEMENT_SET_NO":999,"REV_AT_EPOCH":4349,"BSTAR":0.00017668175,"MEAN_MOTION_DOT":0.00001126,"MEAN_MOTION_DDOT":0},{"OBJECT_NAME":"KUIPER-00139","OBJECT_ID":"2025-217D","EPOCH":"2026-07-14T23:13:15.463776","CLASSIFICATION_TYPE":"U","MEAN_MOTION":14.79935966,"ECCENTRICITY":0.00006668,"INCLINATION":51.8976,"RA_OF_ASC_NODE":177.8003,"ARG_OF_PERICENTER":72.1225,"MEAN_ANOMALY":287.981,"EPHEMERIS_TYPE":0,"NORAD_CAT_ID":65765,"ELEMENT_SET_NO":999,"REV_AT_EPOCH":4404,"BSTAR":0.00019641036,"MEAN_MOTION_DOT":0.00001277,"MEAN_MOTION_DDOT":0},{"OBJECT_NAME":"KUIPER-00142","OBJECT_ID":"2025-217E","EPOCH":"2026-07-14T09:03:21.866688","CLASSIFICATION_TYPE":"U","MEAN_MOTION":14.79937431,"ECCENTRICITY":0.00004489,"INCLINATION":51.8983,"RA_OF_ASC_NODE":195.3705,"ARG_OF_PERICENTER":71.2126,"MEAN_ANOMALY":288.8885,"EPHEMERIS_TYPE":0,"NORAD_CAT_ID":65766,"ELEMENT_SET_NO":999,"REV_AT_EPOCH":4374,"BSTAR":0.00019066816,"MEAN_MOTION_DOT":0.00001233,"MEAN_MOTION_DDOT":0},{"OBJECT_NAME":"KUIPER-00145","OBJECT_ID":"2025-217F","EPOCH":"2026-07-14T07:22:20.460864","CLASSIFICATION_TYPE":"U","MEAN_MOTION":14.7991847,"ECCENTRICITY":0.00005524,"INCLINATION":51.8987,"RA_OF_ASC_NODE":198.2022,"ARG_OF_PERICENTER":71.2754,"MEAN_ANOMALY":288.8269,"EPHEMERIS_TYPE":0,"NORAD_CAT_ID":65767,"ELEMENT_SET_NO":999,"REV_AT_EPOCH":4369,"BSTAR":0.00018302663,"MEAN_MOTION_DOT":0.00001174,"MEAN_MOTION_DDOT":0},{"OBJECT_NAME":"KUIPER-00147","OBJECT_ID":"2025-217G","EPOCH":"2026-07-14T06:29:45.632256","CLASSIFICATION_TYPE":"U","MEAN_MOTION":14.79936498,"ECCENTRICITY":0.00004694,"INCLINATION":51.898,"RA_OF_ASC_NODE":200.8445,"ARG_OF_PERICENTER":73.2279,"MEAN_ANOMALY":286.8735,"EPHEMERIS_TYPE":0,"NORAD_CAT_ID":65768,"ELEMENT_SET_NO":999,"REV_AT_EPOCH":4365,"BSTAR":0.0001777417,"MEAN_MOTION_DOT":0.00001134,"MEAN_MOTION_DDOT":0},{"OBJECT_NAME":"KUIPER-00148","OBJECT_ID":"2025-217H","EPOCH":"2026-07-14T22:00:03.000096","CLASSIFICATION_TYPE":"U","MEAN_MOTION":14.7914835,"ECCENTRICITY":0.00008866,"INCLINATION":51.9026,"RA_OF_ASC_NODE":180.494,"ARG_OF_PERICENTER":105.0926,"MEAN_ANOMALY":1.1904,"EPHEMERIS_TYPE":0,"NORAD_CAT_ID":65769,"ELEMENT_SET_NO":999,"REV_AT_EPOCH":482,"BSTAR":0.010160183,"MEAN_MOTION_DOT":0.00076678,"MEAN_MOTION_DDOT":0},{"OBJECT_NAME":"KUIPER-00150","OBJECT_ID":"2025-217J","EPOCH":"2026-07-14T11:05:58.945920","CLASSIFICATION_TYPE":"U","MEAN_MOTION":14.79934028,"ECCENTRICITY":0.00003558,"INCLINATION":51.8999,"RA_OF_ASC_NODE":210.0311,"ARG_OF_PERICENTER":62.2874,"MEAN_ANOMALY":297.8125,"EPHEMERIS_TYPE":0,"NORAD_CAT_ID":65770,"ELEMENT_SET_NO":999,"REV_AT_EPOCH":4354,"BSTAR":0.00018239431,"MEAN_MOTION_DOT":0.0000117,"MEAN_MOTION_DDOT":0},{"OBJECT_NAME":"KUIPER-00151","OBJECT_ID":"2025-217K","EPOCH":"2026-07-14T12:54:49.483872","CLASSIFICATION_TYPE":"U","MEAN_MOTION":14.79939921,"ECCENTRICITY":0.0000385,"INCLINATION":51.9006,"RA_OF_ASC_NODE":202.1938,"ARG_OF_PERICENTER":77.932,"MEAN_ANOMALY":282.1686,"EPHEMERIS_TYPE":0,"NORAD_CAT_ID":65771,"ELEMENT_SET_NO":999,"REV_AT_EPOCH":4366,"BSTAR":0.00017344,"MEAN_MOTION_DOT":0.00001102,"MEAN_MOTION_DDOT":0},{"OBJECT_NAME":"KUIPER-00152","OBJECT_ID":"2025-217L","EPOCH":"2026-07-14T09:11:12.444288","CLASSIFICATION_TYPE":"U","MEAN_MOTION":14.79928571,"ECCENTRICITY":0.00006631,"INCLINATION":51.8999,"RA_OF_ASC_NODE":190.3658,"ARG_OF_PERICENTER":57.435,"MEAN_ANOMALY":302.6677,"EPHEMERIS_TYPE":0,"NORAD_CAT_ID":65772,"ELEMENT_SET_NO":999,"REV_AT_EPOCH":4381,"BSTAR":0.00018433507,"MEAN_MOTION_DOT":0.00001184,"MEAN_MOTION_DDOT":0}]}
