KUIPER-00114            
1 65151U 25171V   26195.68217390  .00001754  00000+0  25893-3 0  9999
2 65151  51.9007 334.0347 0000499 112.9981 247.1034 14.79937498 51445
KUIPER-00115            
1 65152U 25171W   26195.55520829  .00001581  00000+0  23630-3 0  9995
2 65152  51.9021 327.0984 0000372 108.9058 251.1944 14.79936177 51539
KUIPER-00116            
1 65153U 25171X   26195.58358777  .00001639  00000+0  24400-3 0  9990
2 65153  51.9019 332.0068 0000539 126.6385 233.4627 14.79932722 51466
KUIPER-00118            
1 65154U 25171Y   26195.58086010  .00001304  00000+0  20007-3 0  9997
2 65154  51.9016 334.4702 0000558 107.7573 252.3450 14.79919402 51436
KUIPER-00119            
1 65155U 25171Z   26195.66190793  .00000338  00000+0  73311-4 0  9994
2 65155  51.9036 321.7076 0000043 165.9246 194.1717 14.79934276 51619
KUIPER-00120            
1 65762U 25217A   26195.35849535  .00000881  00000+0  14452-3 0  9993
2 65762  51.8984 212.9268 0000386  72.3449 287.7555 14.79932286 43499
KUIPER-00132            
1 65763U 25217B   26195.93113301  .00020378  00000+0  45714-3 0  9991
2 65763  51.8561 103.9834 0007841  67.5234 292.6585 15.43349101 45052
KUIPER-00133            
1 65764U 25217C   26195.32474397  .00001126  00000+0  17668-3 0  9997
2 65764  51.9026 213.1845 0000443  80.0262 280.0751 14.79932719 43491
KUIPER-00139            
1 65765U 25217D   26195.96754009  .00001277  00000+0  19641-3 0  9999
2 65765  51.8976 177.8003 0000666  72.1225 287.9810 14.79935966 44046
KUIPER-00142            
1 65766U 25217E   26195.37733642  .00001233  00000+0  19067-3 0  9999
2 65766  51.8983 195.3705 0000448  71.2126 288.8885 14.79937431 43744
KUIPER-00145            
1 65767U 25217F   26195.30718126  .00001174  00000+0  18303-3 0  9999
2 65767  51.8987 198.2022 0000552  71.2754 288.8269 14.79918470 43698
KUIPER-00147            
1 65768U 25217G   26195.27066704  .00001134  00000+0  17774-3 0  9991
2 65768  51.8980 200.8445 0000469  73.2279 286.8735 14.79936498 43654
KUIPER-00148            
1 65769U 25217H   26195.91670139  .00076678  00000+0  10160-1 0  9991
2 65769  51.9026 180.4940 0000886 105.0926   1.1904 14.79148350  4820
KUIPER-00150            
1 65770U 25217J   26195.46248780  .00001170  00000+0  18239-3 0  9998
2 65770  51.8999 210.0311 0000355  62.2874 297.8125 14.79934028 43545
KUIPER-00151            
1 65771U 25217K   26195.53807273  .00001102  00000+0  17344-3 0  9996
2 65771  51.9006 202.1938 0000385  77.9320 282.1686 14.79939921 43664
KUIPER-00152            
1 65772U 25217L   26195.38278292  .00001184  00000+0  18434-3 0  9994
2 65772  51.8999 190.3658 0000663  57.4350 302.6677 14.79928571 43811
